     2              NAVIGATION DATA                         RINEX VERSION / TYPE
CCRINEXN V1.6.0 UX  CDDIS               17-JUN-13 22:19     PGM / RUN BY / DATE 
IGS BROADCAST EPHEMERIS FILE                                COMMENT             
    0.1118D-07  0.2235D-07 -0.5960D-07 -0.1192D-06          ION ALPHA           
    0.1024D+06  0.1475D+06 -0.6554D+05 -0.5243D+06          ION BETA            
   -0.372529029846D-08-0.532907051820D-14   319488      721 DELTA-UTC: A0,A1,T,W
    16                                                      LEAP SECONDS        
                                                            END OF HEADER       
 3 13  6 17 14  0  0.0 0.221292022616D-03 0.488853402203D-11 0.000000000000D+00
    0.790000000000D+02-0.208437500000D+02 0.514700015941D-08-0.290478275001D+01
   -0.103376805782D-05 0.163655679207D-01 0.532530248165D-05 0.515370031166D+04
    0.136800000000D+06 0.242143869400D-06-0.303141770221D+01-0.540167093277D-07
    0.934978501448D+00 0.261125000000D+03 0.129537224555D+01-0.821391399342D-08
    0.139291522761D-09 0.100000000000D+01 0.174500000000D+04 0.000000000000D+00
    0.280000000000D+01 0.000000000000D+00-0.465661287308D-08 0.790000000000D+02
    0.129540000000D+06 0.400000000000D+01 0.000000000000D+00 0.000000000000D+00
 4 13  6 17 14  0  0.0 0.248197466135D-03 0.103455022327D-10 0.000000000000D+00
    0.420000000000D+02-0.218750000000D+02 0.493734851753D-08 0.120091833118D+00
   -0.100582838058D-05 0.103084655711D-01 0.980682671070D-05 0.515356444740D+04
    0.136800000000D+06-0.689178705216D-07-0.184513437862D+01 0.184401869774D-06
    0.937474381594D+00 0.178718750000D+03 0.976833734623D+00-0.836856286995D-08
   -0.201436962087D-09 0.000000000000D+00 0.174500000000D+04 0.000000000000D+00
    0.200000000000D+01 0.000000000000D+00-0.605359673500D-08 0.420000000000D+02
    0.129600000000D+06 0.400000000000D+01 0.000000000000D+00 0.000000000000D+00
 5 13  6 17 14  0  0.0-0.397144816816D-03-0.682121026330D-12 0.000000000000D+00
    0.440000000000D+02 0.749375000000D+02 0.476769859378D-08-0.839398251346D+00
    0.390410423279D-05 0.306630309206D-02 0.918842852116D-05 0.515364035797D+04
    0.136800000000D+06 0.931322574615D-07-0.795959914057D+00-0.316649675369D-07
    0.948567630872D+00 0.190156250000D+03 0.253335874696D+00-0.819998441941D-08
    0.228580949885D-09 0.000000000000D+00 0.174500000000D+04 0.000000000000D+00
    0.200000000000D+01 0.000000000000D+00-0.102445483208D-07 0.440000000000D+02
    0.129600000000D+06 0.400000000000D+01 0.000000000000D+00 0.000000000000D+00
 6 13  6 17 14  0  0.0 0.183528289199D-03-0.170530256582D-10 0.000000000000D+00
    0.180000000000D+03-0.258437500000D+02 0.507199704458D-08-0.107752869158D+01
   -0.132992863655D-05 0.810910877772D-02 0.563263893127D-05 0.515367635155D+04
    0.136800000000D+06-0.782310962677D-07-0.295182758559D+01-0.137835741043D-06
    0.941573987147D+00 0.262406250000D+03-0.295369667264D+00-0.843177971888D-08
    0.145720352451D-09 0.100000000000D+01 0.174500000000D+04 0.000000000000D+00
    0.200000000000D+01 0.000000000000D+00-0.512227416039D-08 0.180000000000D+03
    0.129540000000D+06 0.400000000000D+01 0.000000000000D+00 0.000000000000D+00
 7 13  6 17 14  0  0.0 0.226127915084D-03 0.420641299570D-11 0.000000000000D+00
    0.310000000000D+02-0.332812500000D+02 0.432446584565D-08 0.183110284229D+01
   -0.161305069923D-05 0.649446307216D-02 0.793486833572D-05 0.515368879318D+04
    0.136800000000D+06-0.931322574616D-08 0.132110808911D+01 0.204890966415D-06
    0.975191876793D+00 0.236593750000D+03-0.293462059832D+01-0.806247869174D-08
   -0.245367363393D-09 0.000000000000D+00 0.174500000000D+04 0.000000000000D+00
    0.200000000000D+01 0.000000000000D+00-0.107102096081D-07 0.310000000000D+02
    0.129600000000D+06 0.400000000000D+01 0.000000000000D+00 0.000000000000D+00
 8 13  6 17 14  0  0.0 0.678654760122D-05 0.227373675443D-12 0.000000000000D+00
    0.136000000000D+03-0.345312500000D+02 0.375658504827D-08 0.126615133174D+01
   -0.153295695782D-05 0.130307233194D-01 0.867620110512D-05 0.515372215462D+04
    0.136800000000D+06 0.502914190292D-07 0.141287522130D+01 0.154599547386D-06
    0.997925078076D+00 0.231937500000D+03-0.287207383427D+01-0.783354058412D-08
   -0.376087094109D-09 0.000000000000D+00 0.174500000000D+04 0.000000000000D+00
    0.280000000000D+01 0.000000000000D+00-0.419095158577D-08 0.136000000000D+03
    0.129600000000D+06 0.400000000000D+01 0.000000000000D+00 0.000000000000D+00
 9 13  6 17 14  0  0.0 0.248421449214D-03 0.250111042988D-11 0.000000000000D+00
    0.410000000000D+02-0.430937500000D+02 0.397266547746D-08 0.264174594808D+01
   -0.212714076042D-05 0.174395678332D-01 0.793300569058D-05 0.515278629112D+04
    0.136800000000D+06 0.294297933578D-06 0.129802885065D+01-0.162050127983D-06
    0.983822666289D+00 0.230687500000D+03 0.167494000779D+01-0.767496255014D-08
   -0.365372362083D-09 0.000000000000D+00 0.174500000000D+04 0.000000000000D+00
    0.200000000000D+01 0.000000000000D+00-0.558793544769D-08 0.410000000000D+02
    0.129600000000D+06 0.400000000000D+01 0.000000000000D+00 0.000000000000D+00
10 13  6 17 14  0  0.0-0.838325358927D-04-0.136424205266D-11 0.000000000000D+00
    0.330000000000D+02 0.744375000000D+02 0.496913555587D-08-0.629292141321D+00
    0.408850610256D-05 0.124470900046D-01 0.860169529915D-05 0.515364492607D+04
    0.136800000000D+06 0.104308128357D-06-0.776651237224D+00 0.208616256714D-06
    0.943406780656D+00 0.205937500000D+03 0.802444705134D+00-0.846749556232D-08
    0.208580116771D-09 0.000000000000D+00 0.174500000000D+04 0.000000000000D+00
    0.280000000000D+01 0.000000000000D+00-0.279396772385D-08 0.330000000000D+02
    0.129600000000D+06 0.400000000000D+01 0.000000000000D+00 0.000000000000D+00
11 13  6 17 14  0  0.0-0.392411835492D-03-0.363797880709D-11 0.000000000000D+00
    0.112000000000D+03-0.479687500000D+02 0.609382526085D-08 0.203537404943D+01
   -0.268593430519D-05 0.140722614015D-01 0.752881169319D-05 0.515368861198D+04
    0.136800000000D+06 0.931322574616D-08-0.213804046990D+01-0.316649675369D-06
    0.888811274809D+00 0.195625000000D+03 0.117242530982D+01-0.874750722593D-08
   -0.125005206969D-09 0.100000000000D+01 0.174500000000D+04 0.000000000000D+00
    0.280000000000D+01 0.000000000000D+00-0.116415321827D-07 0.112000000000D+03
    0.129618000000D+06 0.400000000000D+01 0.000000000000D+00 0.000000000000D+00
12 13  6 17 14  0  0.0 0.139851588756D-03 0.204636307899D-11 0.000000000000D+00
    0.990000000000D+02-0.137500000000D+01 0.395909348356D-08 0.151602422333D+01
   -0.372529029846D-08 0.451909319963D-02 0.913068652153D-05 0.515355481720D+04
    0.136800000000D+06 0.298023223877D-07 0.238052254136D+01 0.968575477600D-07
    0.984400650593D+00 0.214968750000D+03 0.287318817994D+00-0.782639742944D-08
    0.180007498035D-09 0.100000000000D+01 0.174500000000D+04 0.000000000000D+00
    0.200000000000D+01 0.000000000000D+00-0.121071934700D-07 0.990000000000D+02
    0.129618000000D+06 0.400000000000D+01 0.000000000000D+00 0.000000000000D+00
13 13  6 17 14  0  0.0 0.108649488539D-03-0.363797880709D-11 0.000000000000D+00
    0.490000000000D+02 0.155937500000D+02 0.439089697935D-08-0.209209463982D+01
    0.102818012237D-05 0.517142075114D-02 0.497139990330D-05 0.515373886490D+04
    0.136800000000D+06-0.614672899246D-07 0.354040802900D+00 0.726431608200D-07
    0.981622102489D+00 0.297937500000D+03 0.214398146507D+01-0.805926436698D-08
   -0.432160869590D-10 0.100000000000D+01 0.174500000000D+04 0.000000000000D+00
    0.200000000000D+01 0.000000000000D+00-0.111758708954D-07 0.490000000000D+02
    0.129540000000D+06 0.400000000000D+01 0.000000000000D+00 0.000000000000D+00
15 13  6 17 14  0  0.0-0.123711768538D-03-0.159161572810D-11 0.000000000000D+00
    0.220000000000D+02 0.350312500000D+02 0.535629453974D-08-0.240936680496D+01
    0.168010592461D-05 0.542095676065D-02 0.428408384323D-05 0.515377186775D+04
    0.136800000000D+06-0.968575477600D-07 0.224110324900D+00-0.115483999252D-06
    0.940939513725D+00 0.289625000000D+03 0.166299468480D+00-0.858892919195D-08
    0.367872466222D-10 0.100000000000D+01 0.174500000000D+04 0.000000000000D+00
    0.200000000000D+01 0.000000000000D+00-0.102445483208D-07 0.220000000000D+02
    0.129618000000D+06 0.400000000000D+01 0.000000000000D+00 0.000000000000D+00
16 13  6 17 14  0  0.0-0.251232180744D-03 0.341060513165D-12 0.000000000000D+00
    0.850000000000D+02-0.390625000000D+01 0.390659129664D-08-0.684372156859D+00
   -0.227242708206D-06 0.714206008706D-02 0.818260014057D-05 0.515365962219D+04
    0.136800000000D+06 0.108033418655D-06 0.239891664131D+01-0.614672899246D-07
    0.985102055443D+00 0.236187500000D+03 0.113681914188D+00-0.783996942334D-08
    0.160363822654D-09 0.100000000000D+01 0.174500000000D+04 0.000000000000D+00
    0.200000000000D+01 0.000000000000D+00-0.102445483208D-07 0.850000000000D+02
    0.133728000000D+06 0.400000000000D+01 0.000000000000D+00 0.000000000000D+00
17 13  6 17 14  0  0.0 0.808434560895D-05-0.386535248253D-11 0.000000000000D+00
    0.270000000000D+02-0.289375000000D+02 0.458733393801D-08-0.168514855736D+01
   -0.149011611939D-05 0.834510137793D-02 0.611506402492D-05 0.515363737679D+04
    0.136800000000D+06 0.203028321266D-06-0.284813807922D+01-0.838190317154D-07
    0.965836907738D+00 0.266000000000D+03-0.219020704605D+01-0.804533512050D-08
   -0.857178562071D-11 0.100000000000D+01 0.174500000000D+04 0.000000000000D+00
    0.200000000000D+01 0.000000000000D+00-0.102445483208D-07 0.270000000000D+02
    0.129600000000D+06 0.000000000000D+00 0.000000000000D+00 0.000000000000D+00
